{
    "links": {
        "self": "http://www.neowsapp.com/rest/v1/neo/3703261?api_key=iIulBulltgU6a56xZRHN4H3l9WmuAYTsLGpBGhQ2"
    },
    "id": "3703261",
    "neo_reference_id": "3703261",
    "name": "(2014 YQ42)",
    "designation": "2014 YQ42",
    "nasa_jpl_url": "http://ssd.jpl.nasa.gov/sbdb.cgi?sstr=3703261",
    "absolute_magnitude_h": 22.9,
    "estimated_diameter": {
        "kilometers": {
            "estimated_diameter_min": 0.0699125232,
            "estimated_diameter_max": 0.1563291544
        },
        "meters": {
            "estimated_diameter_min": 69.9125232246,
            "estimated_diameter_max": 156.3291544087
        },
        "miles": {
            "estimated_diameter_min": 0.0434416145,
            "estimated_diameter_max": 0.097138403
        },
        "feet": {
            "estimated_diameter_min": 229.3718026961,
            "estimated_diameter_max": 512.8909429502
        }
    },
    "is_potentially_hazardous_asteroid": false,
    "close_approach_data": [
        {
            "close_approach_date": "2014-12-25",
            "close_approach_date_full": "2014-Dec-25 07:32",
            "epoch_date_close_approach": 1419492720000,
            "relative_velocity": {
                "kilometers_per_second": "3.2837689124",
                "kilometers_per_hour": "11821.56808465",
                "miles_per_hour": "7345.4626801538"
            },
            "miss_distance": {
                "astronomical": "0.2043515175",
                "lunar": "79.4927403075",
                "kilometers": "30570551.749267725",
                "miles": "18995660.016535605"
            },
            "orbiting_body": "Earth"
        }
    ],
    "orbital_data": {
        "orbit_id": "10",
        "orbit_determination_date": "2017-04-06 08:36:33",
        "first_observation_date": "2014-12-30",
        "last_observation_date": "2015-01-16",
        "data_arc_in_days": 17,
        "observations_used": 36,
        "orbit_uncertainty": "7",
        "minimum_orbit_intersection": ".204316",
        "jupiter_tisserand_invariant": "4.615",
        "epoch_osculation": "2459000.5",
        "eccentricity": ".1905475607349538",
        "semi_major_axis": "1.451078854745945",
        "inclination": "6.805526302751796",
        "ascending_node_longitude": "302.0278693108788",
        "orbital_period": "638.4618430151903",
        "perihelion_distance": "1.174579318540035",
        "perihelion_argument": "140.047287551599",
        "aphelion_distance": "1.727578390951855",
        "perihelion_time": "2458918.954095654773",
        "mean_anomaly": "45.98007834836802",
        "mean_motion": ".5638551527212172",
        "equinox": "J2000",
        "orbit_class": {
            "orbit_class_type": "AMO",
            "orbit_class_description": "Near-Earth asteroid orbits similar to that of 1221 Amor",
            "orbit_class_range": "1.017 AU < q (perihelion) < 1.3 AU"
        }
    },
    "is_sentry_object": false
}